[{"OBJECT_NAME":"OPS 6582 (TRANSIT 5B-5)","OBJECT_ID":"1964-083D","EPOCH":"2026-04-05T20:14:34.772928","MEAN_MOTION":13.57005621,"ECCENTRICITY":0.0043262,"INCLINATION":90.079,"RA_OF_ASC_NODE":202.4474,"ARG_OF_PERICENTER":128.0313,"MEAN_ANOMALY":345.911,"EPHEMERIS_TYPE":0,"CLASSIFICATION_TYPE":"U","NORAD_CAT_ID":965,"ELEMENT_SET_NO":999,"REV_AT_EPOCH":3380,"BSTAR":9.6332e-5,"MEAN_MOTION_DOT":7.9e-7,"MEAN_MOTION_DDOT":0},{"OBJECT_NAME":"LES-1","OBJECT_ID":"1965-008C","EPOCH":"2026-04-05T18:21:41.017248","MEAN_MOTION":9.88355037,"ECCENTRICITY":0.0015544,"INCLINATION":32.1408,"RA_OF_ASC_NODE":216.2789,"ARG_OF_PERICENTER":8.6454,"MEAN_ANOMALY":351.4309,"EPHEMERIS_TYPE":0,"CLASSIFICATION_TYPE":"U","NORAD_CAT_ID":1002,"ELEMENT_SET_NO":999,"REV_AT_EPOCH":20902,"BSTAR":2.6509e-5,"MEAN_MOTION_DOT":9.0e-8,"MEAN_MOTION_DDOT":0},{"OBJECT_NAME":"SOLRAD 7B","OBJECT_ID":"1965-016D","EPOCH":"2026-04-05T19:59:23.203680","MEAN_MOTION":13.94966777,"ECCENTRICITY":0.0022853,"INCLINATION":70.0814,"RA_OF_ASC_NODE":30.0881,"ARG_OF_PERICENTER":221.4265,"MEAN_ANOMALY":138.5109,"EPHEMERIS_TYPE":0,"CLASSIFICATION_TYPE":"U","NORAD_CAT_ID":1291,"ELEMENT_SET_NO":999,"REV_AT_EPOCH":10661,"BSTAR":6.1507e-5,"MEAN_MOTION_DOT":3.1e-7,"MEAN_MOTION_DDOT":0},{"OBJECT_NAME":"SECOR 4 (EGRS 4)","OBJECT_ID":"1965-027B","EPOCH":"2026-04-05T05:02:05.964864","MEAN_MOTION":12.92666131,"ECCENTRICITY":0.00321464,"INCLINATION":90.2558,"RA_OF_ASC_NODE":13.9054,"ARG_OF_PERICENTER":33.5978,"MEAN_ANOMALY":133.2145,"EPHEMERIS_TYPE":0,"CLASSIFICATION_TYPE":"U","NORAD_CAT_ID":1315,"ELEMENT_SET_NO":999,"REV_AT_EPOCH":87749,"BSTAR":-5.3679141e-5,"MEAN_MOTION_DOT":-7.0e-8,"MEAN_MOTION_DDOT":0},{"OBJECT_NAME":"TIROS 10","OBJECT_ID":"1965-051A","EPOCH":"2026-04-05T20:38:16.206720","MEAN_MOTION":14.41601972,"ECCENTRICITY":0.0054177,"INCLINATION":98.4926,"RA_OF_ASC_NODE":215.5469,"ARG_OF_PERICENTER":296.7124,"MEAN_ANOMALY":62.8526,"EPHEMERIS_TYPE":0,"CLASSIFICATION_TYPE":"U","NORAD_CAT_ID":1430,"ELEMENT_SET_NO":999,"REV_AT_EPOCH":18549,"BSTAR":8.71e-5,"MEAN_MOTION_DOT":2.43e-6,"MEAN_MOTION_DDOT":0},{"OBJECT_NAME":"ALOUETTE 2","OBJECT_ID":"1965-098A","EPOCH":"2026-04-05T18:13:41.549088","MEAN_MOTION":12.2829632,"ECCENTRICITY":0.1330982,"INCLINATION":79.8026,"RA_OF_ASC_NODE":338.2991,"ARG_OF_PERICENTER":19.4087,"MEAN_ANOMALY":345.3045,"EPHEMERIS_TYPE":0,"CLASSIFICATION_TYPE":"U","NORAD_CAT_ID":1804,"ELEMENT_SET_NO":999,"REV_AT_EPOCH":67038,"BSTAR":0.00033743,"MEAN_MOTION_DOT":1.042e-5,"MEAN_MOTION_DDOT":0},{"OBJECT_NAME":"OV3-3","OBJECT_ID":"1966-070A","EPOCH":"2026-04-05T21:10:14.627136","MEAN_MOTION":13.43844399,"ECCENTRICITY":0.1018174,"INCLINATION":81.3294,"RA_OF_ASC_NODE":34.7404,"ARG_OF_PERICENTER":345.2149,"MEAN_ANOMALY":12.1119,"EPHEMERIS_TYPE":0,"CLASSIFICATION_TYPE":"U","NORAD_CAT_ID":2389,"ELEMENT_SET_NO":999,"REV_AT_EPOCH":58925,"BSTAR":0.0010216,"MEAN_MOTION_DOT":0.00022625,"MEAN_MOTION_DDOT":0},{"OBJECT_NAME":"SECOR 7 (EGRS 7)","OBJECT_ID":"1966-077B","EPOCH":"2026-04-03T12:10:40.274976","MEAN_MOTION":8.59615602,"ECCENTRICITY":0.00117619,"INCLINATION":90.3255,"RA_OF_ASC_NODE":276.5752,"ARG_OF_PERICENTER":130.248,"MEAN_ANOMALY":229.9402,"EPHEMERIS_TYPE":0,"CLASSIFICATION_TYPE":"U","NORAD_CAT_ID":2411,"ELEMENT_SET_NO":999,"REV_AT_EPOCH":87096,"BSTAR":-0.0097570553,"MEAN_MOTION_DOT":-1.8e-7,"MEAN_MOTION_DDOT":0},{"OBJECT_NAME":"ERS 15","OBJECT_ID":"1966-077C","EPOCH":"2026-04-03T11:02:58.229088","MEAN_MOTION":8.5907947,"ECCENTRICITY":0.000727,"INCLINATION":90.3263,"RA_OF_ASC_NODE":276.3679,"ARG_OF_PERICENTER":137.8907,"MEAN_ANOMALY":222.2503,"EPHEMERIS_TYPE":0,"CLASSIFICATION_TYPE":"U","NORAD_CAT_ID":2412,"ELEMENT_SET_NO":999,"REV_AT_EPOCH":38404,"BSTAR":0,"MEAN_MOTION_DOT":2.0e-8,"MEAN_MOTION_DDOT":0},{"OBJECT_NAME":"ISIS 1","OBJECT_ID":"1969-009A","EPOCH":"2026-04-05T17:05:30.362208","MEAN_MOTION":11.30421559,"ECCENTRICITY":0.1707742,"INCLINATION":88.449,"RA_OF_ASC_NODE":152.3577,"ARG_OF_PERICENTER":34.649,"MEAN_ANOMALY":335.4707,"EPHEMERIS_TYPE":0,"CLASSIFICATION_TYPE":"U","NORAD_CAT_ID":3669,"ELEMENT_SET_NO":999,"REV_AT_EPOCH":35158,"BSTAR":0.00011689,"MEAN_MOTION_DOT":1.8e-6,"MEAN_MOTION_DDOT":0},{"OBJECT_NAME":"SECOR 13 (EGRS 13)","OBJECT_ID":"1969-037B","EPOCH":"2026-04-05T21:27:39.415680","MEAN_MOTION":13.42974064,"ECCENTRICITY":0.0040249,"INCLINATION":99.6601,"RA_OF_ASC_NODE":330.4831,"ARG_OF_PERICENTER":69.2603,"MEAN_ANOMALY":301.6717,"EPHEMERIS_TYPE":0,"CLASSIFICATION_TYPE":"U","NORAD_CAT_ID":3891,"ELEMENT_SET_NO":999,"REV_AT_EPOCH":79205,"BSTAR":4.7689e-5,"MEAN_MOTION_DOT":-1.5e-7,"MEAN_MOTION_DDOT":0},{"OBJECT_NAME":"ATS 5","OBJECT_ID":"1969-069A","EPOCH":"2026-04-05T19:30:57.219264","MEAN_MOTION":0.99496329,"ECCENTRICITY":0.0005911,"INCLINATION":0.2459,"RA_OF_ASC_NODE":197.4698,"ARG_OF_PERICENTER":85.2577,"MEAN_ANOMALY":188.6456,"EPHEMERIS_TYPE":0,"CLASSIFICATION_TYPE":"U","NORAD_CAT_ID":4068,"ELEMENT_SET_NO":999,"REV_AT_EPOCH":4560,"BSTAR":0,"MEAN_MOTION_DOT":-2.12e-6,"MEAN_MOTION_DDOT":0},{"OBJECT_NAME":"OPS 7613 (P/L 4)","OBJECT_ID":"1969-082E","EPOCH":"2026-04-05T21:21:06.274944","MEAN_MOTION":13.95984664,"ECCENTRICITY":0.0022528,"INCLINATION":70.0136,"RA_OF_ASC_NODE":258.3331,"ARG_OF_PERICENTER":229.095,"MEAN_ANOMALY":287.878,"EPHEMERIS_TYPE":0,"CLASSIFICATION_TYPE":"U","NORAD_CAT_ID":4237,"ELEMENT_SET_NO":999,"REV_AT_EPOCH":87621,"BSTAR":8.6461e-5,"MEAN_MOTION_DOT":6.6e-7,"MEAN_MOTION_DDOT":0},{"OBJECT_NAME":"OPS 7613 (P/L 1)","OBJECT_ID":"1969-082B","EPOCH":"2026-04-05T09:20:51.094464","MEAN_MOTION":13.99176932,"ECCENTRICITY":0.00188836,"INCLINATION":70.0074,"RA_OF_ASC_NODE":121.4019,"ARG_OF_PERICENTER":169.0624,"MEAN_ANOMALY":191.0898,"EPHEMERIS_TYPE":0,"CLASSIFICATION_TYPE":"U","NORAD_CAT_ID":4256,"ELEMENT_SET_NO":999,"REV_AT_EPOCH":88028,"BSTAR":0.000114941,"MEAN_MOTION_DOT":1.14e-6,"MEAN_MOTION_DDOT":0},{"OBJECT_NAME":"SHINSEI (MS-F2)","OBJECT_ID":"1971-080A","EPOCH":"2026-04-05T14:26:08.428416","MEAN_MOTION":12.74248584,"ECCENTRICITY":0.0639933,"INCLINATION":32.059,"RA_OF_ASC_NODE":57.2033,"ARG_OF_PERICENTER":279.1092,"MEAN_ANOMALY":73.7674,"EPHEMERIS_TYPE":0,"CLASSIFICATION_TYPE":"U","NORAD_CAT_ID":5485,"ELEMENT_SET_NO":999,"REV_AT_EPOCH":53999,"BSTAR":-8.555e-6,"MEAN_MOTION_DOT":2.6e-7,"MEAN_MOTION_DDOT":0},{"OBJECT_NAME":"PROSPERO (BLACK ARROW)","OBJECT_ID":"1971-093A","EPOCH":"2026-04-05T18:26:21.226272","MEAN_MOTION":14.01478885,"ECCENTRICITY":0.0503021,"INCLINATION":82.0423,"RA_OF_ASC_NODE":354.3969,"ARG_OF_PERICENTER":74.8101,"MEAN_ANOMALY":290.8107,"EPHEMERIS_TYPE":0,"CLASSIFICATION_TYPE":"U","NORAD_CAT_ID":5580,"ELEMENT_SET_NO":999,"REV_AT_EPOCH":73838,"BSTAR":0.00051224,"MEAN_MOTION_DOT":2.422e-5,"MEAN_MOTION_DDOT":0},{"OBJECT_NAME":"OPS 7898 (P/L 2)","OBJECT_ID":"1971-110C","EPOCH":"2026-04-05T13:22:20.605152","MEAN_MOTION":13.74752675,"ECCENTRICITY":0.0010616,"INCLINATION":69.9889,"RA_OF_ASC_NODE":152.8093,"ARG_OF_PERICENTER":262.4519,"MEAN_ANOMALY":97.5369,"EPHEMERIS_TYPE":0,"CLASSIFICATION_TYPE":"U","NORAD_CAT_ID":5680,"ELEMENT_SET_NO":999,"REV_AT_EPOCH":33823,"BSTAR":7.159e-5,"MEAN_MOTION_DOT":1.8e-7,"MEAN_MOTION_DDOT":0}]
