OPS 6582 (TRANSIT 5B-5) 
1 00965U 64083D   26095.84345802  .00000079  00000+0  96332-4 0  9999
2 00965  90.0790 202.4474 0043262 128.0313 345.9110 13.57005621 33802
LES-1                   
1 01002U 65008C   26095.76505807  .00000009  00000+0  26509-4 0  9996
2 01002  32.1408 216.2789 0015544   8.6454 351.4309  9.88355037209020
SOLRAD 7B               
1 01291U 65016D   26095.83290745  .00000031  00000+0  61507-4 0  9997
2 01291  70.0814  30.0881 0022853 221.4265 138.5109 13.94966777106617
SECOR 4 (EGRS 4)        
1 01315U 65027B   26095.20979126 -.00000007  00000+0 -53679-4 0  9990
2 01315  90.2558  13.9054 0032146  33.5978 133.2145 12.92666131877495
TIROS 10                
1 01430U 65051A   26095.85990980  .00000243  00000+0  87100-4 0  9993
2 01430  98.4926 215.5469 0054177 296.7124  62.8526 14.41601972185496
ALOUETTE 2              
1 01804U 65098A   26095.75950867  .00001042  00000+0  33743-3 0  9999
2 01804  79.8026 338.2991 1330982  19.4087 345.3045 12.28296320670380
OV3-3                   
1 02389U 66070A   26095.88211374  .00022625  00000+0  10216-2 0  9995
2 02389  81.3294  34.7404 1018174 345.2149  12.1119 13.43844399589255
SECOR 7 (EGRS 7)        
1 02411U 66077B   26093.50741059 -.00000018  00000+0 -97571-2 0  9996
2 02411  90.3255 276.5752 0011761 130.2480 229.9402  8.59615602870962
ERS 15                  
1 02412U 66077C   26093.46039617  .00000002  00000+0  00000+0 0  9991
2 02412  90.3263 276.3679 0007270 137.8907 222.2503  8.59079470384049
ISIS 1                  
1 03669U 69009A   26095.71215697  .00000180  00000+0  11689-3 0  9994
2 03669  88.4490 152.3577 1707742  34.6490 335.4707 11.30421559351585
SECOR 13 (EGRS 13)      
1 03891U 69037B   26095.89420620 -.00000015  00000+0  47689-4 0  9993
2 03891  99.6601 330.4831 0040249  69.2603 301.6717 13.42974064792059
ATS 5                   
1 04068U 69069A   26095.81316226 -.00000212  00000+0  00000+0 0  9993
2 04068   0.2459 197.4698 0005911  85.2577 188.6456  0.99496329 45608
OPS 7613 (P/L 4)        
1 04237U 69082E   26095.88965596  .00000066  00000+0  86461-4 0  9999
2 04237  70.0136 258.3331 0022528 229.0950 287.8780 13.95984664876215
OPS 7613 (P/L 1)        
1 04256U 69082B   26095.38948026  .00000114  00000+0  11494-3 0  9991
2 04256  70.0074 121.4019 0018883 169.0624 191.0898 13.99176932880283
SHINSEI (MS-F2)         
1 05485U 71080A   26095.60148644  .00000026  00000+0 -85550-5 0  9999
2 05485  32.0590  57.2033 0639933 279.1092  73.7674 12.74248584539990
PROSPERO (BLACK ARROW)  
1 05580U 71093A   26095.76830123  .00002422  00000+0  51224-3 0  9996
2 05580  82.0423 354.3969 0503021  74.8101 290.8107 14.01478885738382
OPS 7898 (P/L 2)        
1 05680U 71110C   26095.55718293  .00000018  00000+0  71590-4 0  9995
2 05680  69.9889 152.8093 0010616 262.4519  97.5369 13.74752675338236
